{
    "links": {
        "self": "http://www.neowsapp.com/rest/v1/neo/3435551?api_key=iIulBulltgU6a56xZRHN4H3l9WmuAYTsLGpBGhQ2"
    },
    "id": "3435551",
    "neo_reference_id": "3435551",
    "name": "(2008 VL)",
    "designation": "2008 VL",
    "nasa_jpl_url": "http://ssd.jpl.nasa.gov/sbdb.cgi?sstr=3435551",
    "absolute_magnitude_h": 27.644,
    "estimated_diameter": {
        "kilometers": {
            "estimated_diameter_min": 0.0078660187,
            "estimated_diameter_max": 0.0175889526
        },
        "meters": {
            "estimated_diameter_min": 7.8660187376,
            "estimated_diameter_max": 17.5889526096
        },
        "miles": {
            "estimated_diameter_min": 0.0048877159,
            "estimated_diameter_max": 0.0109292651
        },
        "feet": {
            "estimated_diameter_min": 25.8071489151,
            "estimated_diameter_max": 57.7065392797
        }
    },
    "is_potentially_hazardous_asteroid": false,
    "close_approach_data": [
        {
            "close_approach_date": "2008-10-28",
            "close_approach_date_full": "2008-Oct-28 22:16",
            "epoch_date_close_approach": 1225232160000,
            "relative_velocity": {
                "kilometers_per_second": "12.1898480015",
                "kilometers_per_hour": "43883.4528052225",
                "miles_per_hour": "27267.4709944451"
            },
            "miss_distance": {
                "astronomical": "0.0080813329",
                "lunar": "3.1436384981",
                "kilometers": "1208950.188600923",
                "miles": "751206.8132738174"
            },
            "orbiting_body": "Moon"
        },
        {
            "close_approach_date": "2008-10-29",
            "close_approach_date_full": "2008-Oct-29 04:04",
            "epoch_date_close_approach": 1225253040000,
            "relative_velocity": {
                "kilometers_per_second": "11.5809133752",
                "kilometers_per_hour": "41691.2881506026",
                "miles_per_hour": "25905.345128912"
            },
            "miss_distance": {
                "astronomical": "0.0064794446",
                "lunar": "2.5205039494",
                "kilometers": "969311.110943002",
                "miles": "602301.9952253476"
            },
            "orbiting_body": "Earth"
        }
    ],
    "orbital_data": {
        "orbit_id": "7",
        "orbit_determination_date": "2017-04-06 09:02:16",
        "first_observation_date": "2008-11-02",
        "last_observation_date": "2008-11-02",
        "data_arc_in_days": null,
        "observations_used": 8,
        "orbit_uncertainty": "9",
        "minimum_orbit_intersection": ".00142412",
        "jupiter_tisserand_invariant": "3.221",
        "epoch_osculation": "2454772.5",
        "eccentricity": ".6177201436298093",
        "semi_major_axis": "2.421383732490066",
        "inclination": "2.680714140948789",
        "ascending_node_longitude": "216.6217391138213",
        "orbital_period": "1376.238989451831",
        "perihelion_distance": ".9256462254734186",
        "perihelion_argument": "143.4032312681845",
        "aphelion_distance": "3.917121239506713",
        "perihelion_time": "2454742.027119596783",
        "mean_anomaly": "7.971171452952126",
        "mean_motion": ".2615824742353734",
        "equinox": "J2000",
        "orbit_class": {
            "orbit_class_type": "APO",
            "orbit_class_description": "Near-Earth asteroid orbits which cross the Earth’s orbit similar to that of 1862 Apollo",
            "orbit_class_range": "a (semi-major axis) > 1.0 AU; q (perihelion) < 1.017 AU"
        }
    },
    "is_sentry_object": false
}